{
  "type": "FeatureCollection",
  "features": [
    {
      "type": "Feature",
      "properties": {
        "norad_id": 61183,
        "name": "GSAT0226 (GALILEO 31)",
        "group": "gnss",
        "lat": -2.274320595711277,
        "lon": 47.818558028001256,
        "alt_km": 23221.998916518405,
        "timestamp": "2025-12-20T11:30:28.621656+00:00",
        "meta_object_name": "GSAT0226 (GALILEO 31)",
        "meta_object_id": "2024-167B",
        "meta_epoch": "2025-12-19T08:05:33.318816",
        "meta_mean_motion": 1.70473764,
        "meta_eccentricity": 0.0001078,
        "meta_inclination": 55.2375,
        "meta_ra_of_asc_node": 226.2553,
        "meta_arg_of_pericenter": 106.8002,
        "meta_mean_anomaly": 94.9592,
        "meta_ephemeris_type": 0,
        "meta_classification_type": "U",
        "meta_norad_cat_id": 61183,
        "meta_element_set_no": 999,
        "meta_rev_at_epoch": 778,
        "meta_bstar": 0,
        "meta_mean_motion_dot": 6.7e-07,
        "meta_mean_motion_ddot": 0,
        "tle_line1": "1 61183U 24167B   25353.33719119  .00000067  00000+0  00000+0 0  9992",
        "tle_line2": "2 61183  55.2375 226.2553 0001078 106.8002  94.9592  1.70473764  7785"
      },
      "geometry": {
        "type": "Point",
        "coordinates": [
          47.818558028001256,
          -2.274320595711277
        ]
      }
    },
    {
      "type": "Feature",
      "properties": {
        "norad_id": 61186,
        "name": "BEIDOU-3 M25 (C47)",
        "group": "gnss",
        "lat": -47.09609661461928,
        "lon": 178.19563539028698,
        "alt_km": 21524.834657885265,
        "timestamp": "2025-12-20T11:30:28.621667+00:00",
        "meta_object_name": "BEIDOU-3 M25 (C47)",
        "meta_object_id": "2024-168B",
        "meta_epoch": "2025-12-20T04:50:33.841248",
        "meta_mean_motion": 1.86230266,
        "meta_eccentricity": 0.0005452,
        "meta_inclination": 54.6355,
        "meta_ra_of_asc_node": 308.462,
        "meta_arg_of_pericenter": 299.482,
        "meta_mean_anomaly": 118.2458,
        "meta_ephemeris_type": 0,
        "meta_classification_type": "U",
        "meta_norad_cat_id": 61186,
        "meta_element_set_no": 999,
        "meta_rev_at_epoch": 845,
        "meta_bstar": 0,
        "meta_mean_motion_dot": -7.1e-07,
        "meta_mean_motion_ddot": 0,
        "tle_line1": "1 61186U 24168B   25354.20178057 -.00000071  00000+0  00000+0 0  9999",
        "tle_line2": "2 61186  54.6355 308.4620 0005452 299.4820 118.2458  1.86230266  8455"
      },
      "geometry": {
        "type": "Point",
        "coordinates": [
          178.19563539028698,
          -47.09609661461928
        ]
      }
    },
    {
      "type": "Feature",
      "properties": {
        "norad_id": 61187,
        "name": "BEIDOU-3 M27 (C49)",
        "group": "gnss",
        "lat": 15.314557111470846,
        "lon": -40.3824309705204,
        "alt_km": 21520.903185025225,
        "timestamp": "2025-12-20T11:30:28.621682+00:00",
        "meta_object_name": "BEIDOU-3 M27 (C49)",
        "meta_object_id": "2024-168C",
        "meta_epoch": "2025-12-20T01:43:20.217792",
        "meta_mean_motion": 1.8623042,
        "meta_eccentricity": 0.0002518,
        "meta_inclination": 54.631,
        "meta_ra_of_asc_node": 308.4501,
        "meta_arg_of_pericenter": 339.7234,
        "meta_mean_anomaly": 125.7801,
        "meta_ephemeris_type": 0,
        "meta_classification_type": "U",
        "meta_norad_cat_id": 61187,
        "meta_element_set_no": 999,
        "meta_rev_at_epoch": 592,
        "meta_bstar": 0,
        "meta_mean_motion_dot": -7.2e-07,
        "meta_mean_motion_ddot": 0,
        "tle_line1": "1 61187U 24168C   25354.07176178 -.00000072  00000+0  00000+0 0  9998",
        "tle_line2": "2 61187  54.6310 308.4501 0002518 339.7234 125.7801  1.86230420  5928"
      },
      "geometry": {
        "type": "Point",
        "coordinates": [
          -40.3824309705204,
          15.314557111470846
        ]
      }
    },
    {
      "type": "Feature",
      "properties": {
        "norad_id": 62339,
        "name": "GPS BIII-7  (PRN 01)",
        "group": "gnss",
        "lat": 54.90122891704696,
        "lon": 70.3206708301419,
        "alt_km": 20183.264239176468,
        "timestamp": "2025-12-20T11:30:28.621696+00:00",
        "meta_object_name": "GPS BIII-7  (PRN 01)",
        "meta_object_id": "2024-242A",
        "meta_epoch": "2025-12-18T08:46:28.895808",
        "meta_mean_motion": 2.00568182,
        "meta_eccentricity": 0.0012509,
        "meta_inclination": 54.922,
        "meta_ra_of_asc_node": 341.5124,
        "meta_arg_of_pericenter": 345.6877,
        "meta_mean_anomaly": 17.1618,
        "meta_ephemeris_type": 0,
        "meta_classification_type": "U",
        "meta_norad_cat_id": 62339,
        "meta_element_set_no": 999,
        "meta_rev_at_epoch": 763,
        "meta_bstar": 0,
        "meta_mean_motion_dot": -8.5e-07,
        "meta_mean_motion_ddot": 0,
        "tle_line1": "1 62339U 24242A   25352.36561222 -.00000085  00000+0  00000+0 0  9993",
        "tle_line2": "2 62339  54.9220 341.5124 0012509 345.6877  17.1618  2.00568182  7636"
      },
      "geometry": {
        "type": "Point",
        "coordinates": [
          70.3206708301419,
          54.90122891704696
        ]
      }
    },
    {
      "type": "Feature",
      "properties": {
        "norad_id": 62850,
        "name": "NVS-02 (IRNSS-1K)",
        "group": "gnss",
        "lat": -2.885978391592587,
        "lon": 152.423744666319,
        "alt_km": 29296.906557707032,
        "timestamp": "2025-12-20T11:30:28.621708+00:00",
        "meta_object_name": "NVS-02 (IRNSS-1K)",
        "meta_object_id": "2025-020A",
        "meta_epoch": "2025-12-19T21:36:38.784096",
        "meta_mean_motion": 2.17600075,
        "meta_eccentricity": 0.7347354,
        "meta_inclination": 20.9657,
        "meta_ra_of_asc_node": 325.068,
        "meta_arg_of_pericenter": 30.8754,
        "meta_mean_anomaly": 356.6666,
        "meta_ephemeris_type": 0,
        "meta_classification_type": "U",
        "meta_norad_cat_id": 62850,
        "meta_element_set_no": 999,
        "meta_rev_at_epoch": 707,
        "meta_bstar": 0.00011703,
        "meta_mean_motion_dot": 1.57e-06,
        "meta_mean_motion_ddot": 0,
        "tle_line1": "1 62850U 25020A   25353.90044889  .00000157  00000+0  11703-3 0  9997",
        "tle_line2": "2 62850  20.9657 325.0680 7347354  30.8754 356.6666  2.17600075  7076"
      },
      "geometry": {
        "type": "Point",
        "coordinates": [
          152.423744666319,
          -2.885978391592587
        ]
      }
    },
    {
      "type": "Feature",
      "properties": {
        "norad_id": 62876,
        "name": "QZS-6 (QZSS/PRN 200)",
        "group": "gnss",
        "lat": -0.04701726099564416,
        "lon": -7.517943326196768,
        "alt_km": 35784.1844302848,
        "timestamp": "2025-12-20T11:30:28.621720+00:00",
        "meta_object_name": "QZS-6 (QZSS/PRN 200)",
        "meta_object_id": "2025-023A",
        "meta_epoch": "2025-12-19T20:26:26.289024",
        "meta_mean_motion": 1.00272644,
        "meta_eccentricity": 0.00014853,
        "meta_inclination": 0.0481,
        "meta_ra_of_asc_node": 68.6694,
        "meta_arg_of_pericenter": 209.7376,
        "meta_mean_anomaly": 207.4378,
        "meta_ephemeris_type": 0,
        "meta_classification_type": "U",
        "meta_norad_cat_id": 62876,
        "meta_element_set_no": 999,
        "meta_rev_at_epoch": 316,
        "meta_bstar": 0,
        "meta_mean_motion_dot": -2.09e-06,
        "meta_mean_motion_ddot": 0,
        "tle_line1": "1 62876U 25023A   25353.85169316 -.00000209  00000+0  00000+0 0  9998",
        "tle_line2": "2 62876   0.0481  68.6694 0001485 209.7376 207.4378  1.00272644  3162"
      },
      "geometry": {
        "type": "Point",
        "coordinates": [
          -7.517943326196768,
          -0.04701726099564416
        ]
      }
    },
    {
      "type": "Feature",
      "properties": {
        "norad_id": 63130,
        "name": "COSMOS 2584 (704K)",
        "group": "gnss",
        "lat": 64.14696123400685,
        "lon": -175.28237067892826,
        "alt_km": 19133.25851830464,
        "timestamp": "2025-12-20T11:30:28.621733+00:00",
        "meta_object_name": "COSMOS 2584 (704K)",
        "meta_object_id": "2025-042A",
        "meta_epoch": "2025-12-18T11:25:35.911776",
        "meta_mean_motion": 2.13103072,
        "meta_eccentricity": 0.00077091,
        "meta_inclination": 64.979,
        "meta_ra_of_asc_node": 78.9506,
        "meta_arg_of_pericenter": 218.5301,
        "meta_mean_anomaly": 141.4378,
        "meta_ephemeris_type": 0,
        "meta_classification_type": "U",
        "meta_norad_cat_id": 63130,
        "meta_element_set_no": 999,
        "meta_rev_at_epoch": 619,
        "meta_bstar": 0,
        "meta_mean_motion_dot": -3.8e-07,
        "meta_mean_motion_ddot": 0,
        "tle_line1": "1 63130U 25042A   25352.47611009 -.00000038  00000+0  00000+0 0  9991",
        "tle_line2": "2 63130  64.9790  78.9506 0007709 218.5301 141.4378  2.13103072  6191"
      },
      "geometry": {
        "type": "Point",
        "coordinates": [
          -175.28237067892826,
          64.14696123400685
        ]
      }
    }
  ]
}